{
  "schema": "int-temerity-real-tle-snapshot/v1",
  "source": "celestrak",
  "group": "STARLINK",
  "format": "celestrak-gp-json",
  "source_url": "https://celestrak.org/NORAD/elements/gp.php?NAME=STARLINK&FORMAT=JSON",
  "downloaded_at": "2026-06-26T09:50:33.467Z",
  "generated_at": "2026-06-26T09:50:44.363Z",
  "fingerprint": "77a8ac15",
  "shell_id": "starlink-real-43deg-490km",
  "catalog_count": 10658,
  "shell_count": 3264,
  "selected_count": 1584,
  "mean_altitude_km": 490.2,
  "mean_inclination_deg": 43.0017,
  "mean_mean_motion_rev_per_day": 15.27576648,
  "layout": {
    "planes": 72,
    "satellites_per_plane": 22,
    "selection_strategy": "largest-shell-raan-clusters-even-slot-sampling",
    "raan_cluster_threshold_deg": 1.5
  },
  "satellites": [
    {
      "satellite_id": "P21-S05",
      "norad_id": 55623,
      "satellite_name": "STARLINK-5698",
      "cospar_id": "2023-020BG",
      "shell_id": "starlink-real-43deg-490km",
      "plane_id": 20,
      "slot_id": 4,
      "epoch": "2026-06-25T19:20:04.381728",
      "inclination": 43.0031,
      "raan": 103.6945,
      "eccentricity": 0.0001719,
      "argument_of_perigee": 265.4239,
      "mean_anomaly": 94.64170000000001,
      "mean_motion": 15.27581669,
      "bstar": 0.0000079065,
      "status": "active",
      "raw_omm": {
        "OBJECT_NAME": "STARLINK-5698",
        "OBJECT_ID": "2023-020BG",
        "EPOCH": "2026-06-25T19:20:04.381728",
        "MEAN_MOTION": 15.27581669,
        "ECCENTRICITY": 0.0001719,
        "INCLINATION": 43.0031,
        "RA_OF_ASC_NODE": 103.6945,
        "ARG_OF_PERICENTER": 265.4239,
        "MEAN_ANOMALY": 94.6417,
        "EPHEMERIS_TYPE": 0,
        "CLASSIFICATION_TYPE": "U",
        "NORAD_CAT_ID": 55623,
        "ELEMENT_SET_NO": 999,
        "REV_AT_EPOCH": 899,
        "BSTAR": 0.0000079065,
        "MEAN_MOTION_DOT": -4.5e-7,
        "MEAN_MOTION_DDOT": 0
      },
      "source": "celestrak",
      "source_url": "https://celestrak.org/NORAD/elements/gp.php?NAME=STARLINK&FORMAT=JSON",
      "catalog_fingerprint": "77a8ac15"
    },
    {
      "satellite_id": "P21-S06",
      "norad_id": 55620,
      "satellite_name": "STARLINK-5718",
      "cospar_id": "2023-020BD",
      "shell_id": "starlink-real-43deg-490km",
      "plane_id": 20,
      "slot_id": 5,
      "epoch": "2026-06-25T20:44:58.949952",
      "inclination": 43.0053,
      "raan": 103.27949999999998,
      "eccentricity": 0.0001651,
      "argument_of_perigee": 268.2968000000001,
      "mean_anomaly": 91.7695,
      "mean_motion": 15.27577416,
      "bstar": 0.000012325,
      "status": "active",
      "raw_omm": {
        "OBJECT_NAME": "STARLINK-5718",
        "OBJECT_ID": "2023-020BD",
        "EPOCH": "2026-06-25T20:44:58.949952",
        "MEAN_MOTION": 15.27577416,
        "ECCENTRICITY": 0.0001651,
        "INCLINATION": 43.0053,
        "RA_OF_ASC_NODE": 103.2795,
        "ARG_OF_PERICENTER": 268.2968,
        "MEAN_ANOMALY": 91.7695,
        "EPHEMERIS_TYPE": 0,
        "CLASSIFICATION_TYPE": "U",
        "NORAD_CAT_ID": 55620,
        "ELEMENT_SET_NO": 999,
        "REV_AT_EPOCH": 18558,
        "BSTAR": 0.000012325,
        "MEAN_MOTION_DOT": 7.7e-7,
        "MEAN_MOTION_DDOT": 0
      },
      "source": "celestrak",
      "source_url": "https://celestrak.org/NORAD/elements/gp.php?NAME=STARLINK&FORMAT=JSON",
      "catalog_fingerprint": "77a8ac15"
    },
    {
      "satellite_id": "P21-S07",
      "norad_id": 66491,
      "satellite_name": "STARLINK-35663",
      "cospar_id": "2025-263G",
      "shell_id": "starlink-real-43deg-490km",
      "plane_id": 20,
      "slot_id": 6,
      "epoch": "2026-06-25T11:39:12.626784",
      "inclination": 43.0016,
      "raan": 102.02570000000003,
      "eccentricity": 0.0001642,
      "argument_of_perigee": 262.56269999999995,
      "mean_anomaly": 97.50380000000001,
      "mean_motion": 15.27600827,
      "bstar": 0.00071457,
      "status": "active",
      "raw_omm": {
        "OBJECT_NAME": "STARLINK-35663",
        "OBJECT_ID": "2025-263G",
        "EPOCH": "2026-06-25T11:39:12.626784",
        "MEAN_MOTION": 15.27600827,
        "ECCENTRICITY": 0.0001642,
        "INCLINATION": 43.0016,
        "RA_OF_ASC_NODE": 102.0257,
        "ARG_OF_PERICENTER": 262.5627,
        "MEAN_ANOMALY": 97.5038,
        "EPHEMERIS_TYPE": 0,
        "CLASSIFICATION_TYPE": "U",
        "NORAD_CAT_ID": 66491,
        "ELEMENT_SET_NO": 999,
        "REV_AT_EPOCH": 3538,
        "BSTAR": 0.00071457,
        "MEAN_MOTION_DOT": 0.00019466,
        "MEAN_MOTION_DDOT": 0
      },
      "source": "celestrak",
      "source_url": "https://celestrak.org/NORAD/elements/gp.php?NAME=STARLINK&FORMAT=JSON",
      "catalog_fingerprint": "77a8ac15"
    },
    {
      "satellite_id": "P21-S08",
      "norad_id": 55619,
      "satellite_name": "STARLINK-5720",
      "cospar_id": "2023-020BC",
      "shell_id": "starlink-real-43deg-490km",
      "plane_id": 20,
      "slot_id": 7,
      "epoch": "2026-06-25T20:39:25.947072",
      "inclination": 43.0045,
      "raan": 103.2482,
      "eccentricity": 0.00016,
      "argument_of_perigee": 274.6616,
      "mean_anomaly": 85.40530000000001,
      "mean_motion": 15.27577256,
      "bstar": 0.000012308,
      "status": "active",
      "raw_omm": {
        "OBJECT_NAME": "STARLINK-5720",
        "OBJECT_ID": "2023-020BC",
        "EPOCH": "2026-06-25T20:39:25.947072",
        "MEAN_MOTION": 15.27577256,
        "ECCENTRICITY": 0.00016,
        "INCLINATION": 43.0045,
        "RA_OF_ASC_NODE": 103.2482,
        "ARG_OF_PERICENTER": 274.6616,
        "MEAN_ANOMALY": 85.4053,
        "EPHEMERIS_TYPE": 0,
        "CLASSIFICATION_TYPE": "U",
        "NORAD_CAT_ID": 55619,
        "ELEMENT_SET_NO": 999,
        "REV_AT_EPOCH": 18557,
        "BSTAR": 0.000012308,
        "MEAN_MOTION_DOT": 7.6e-7,
        "MEAN_MOTION_DDOT": 0
      },
      "source": "celestrak",
      "source_url": "https://celestrak.org/NORAD/elements/gp.php?NAME=STARLINK&FORMAT=JSON",
      "catalog_fingerprint": "77a8ac15"
    },
    {
      "satellite_id": "P21-S09",
      "norad_id": 55603,
      "satellite_name": "STARLINK-5735",
      "cospar_id": "2023-020AL",
      "shell_id": "starlink-real-43deg-490km",
      "plane_id": 20,
      "slot_id": 8,
      "epoch": "2026-06-25T20:30:11.082816",
      "inclination": 43.0034,
      "raan": 103.21050000000002,
      "eccentricity": 0.000151,
      "argument_of_perigee": 270.33899999999994,
      "mean_anomaly": 89.72879999999998,
      "mean_motion": 15.27574164,
      "bstar": 0.000016037,
      "status": "active",
      "raw_omm": {
        "OBJECT_NAME": "STARLINK-5735",
        "OBJECT_ID": "2023-020AL",
        "EPOCH": "2026-06-25T20:30:11.082816",
        "MEAN_MOTION": 15.27574164,
        "ECCENTRICITY": 0.000151,
        "INCLINATION": 43.0034,
        "RA_OF_ASC_NODE": 103.2105,
        "ARG_OF_PERICENTER": 270.339,
        "MEAN_ANOMALY": 89.7288,
        "EPHEMERIS_TYPE": 0,
        "CLASSIFICATION_TYPE": "U",
        "NORAD_CAT_ID": 55603,
        "ELEMENT_SET_NO": 999,
        "REV_AT_EPOCH": 18558,
        "BSTAR": 0.000016037,
        "MEAN_MOTION_DOT": 0.00000179,
        "MEAN_MOTION_DDOT": 0
      },
      "source": "celestrak",
      "source_url": "https://celestrak.org/NORAD/elements/gp.php?NAME=STARLINK&FORMAT=JSON",
      "catalog_fingerprint": "77a8ac15"
    },
    {
      "satellite_id": "P21-S10",
      "norad_id": 55621,
      "satellite_name": "STARLINK-5709",
      "cospar_id": "2023-020BE",
      "shell_id": "starlink-real-43deg-490km",
      "plane_id": 20,
      "slot_id": 9,
      "epoch": "2026-06-25T20:22:46.809696",
      "inclination": 43.0055,
      "raan": 103.1671,
      "eccentricity": 0.0001496,
      "argument_of_perigee": 279.60799999999995,
      "mean_anomaly": 80.46019999999999,
      "mean_motion": 15.27576939,
      "bstar": 0.00001333,
      "status": "active",
      "raw_omm": {
        "OBJECT_NAME": "STARLINK-5709",
        "OBJECT_ID": "2023-020BE",
        "EPOCH": "2026-06-25T20:22:46.809696",
        "MEAN_MOTION": 15.27576939,
        "ECCENTRICITY": 0.0001496,
        "INCLINATION": 43.0055,
        "RA_OF_ASC_NODE": 103.1671,
        "ARG_OF_PERICENTER": 279.608,
        "MEAN_ANOMALY": 80.4602,
        "EPHEMERIS_TYPE": 0,
        "CLASSIFICATION_TYPE": "U",
        "NORAD_CAT_ID": 55621,
        "ELEMENT_SET_NO": 999,
        "REV_AT_EPOCH": 18558,
        "BSTAR": 0.00001333,
        "MEAN_MOTION_DOT": 0.00000105,
        "MEAN_MOTION_DDOT": 0
      },
      "source": "celestrak",
      "source_url": "https://celestrak.org/NORAD/elements/gp.php?NAME=STARLINK&FORMAT=JSON",
      "catalog_fingerprint": "77a8ac15"
    }
  ]
}